      2.10          N: GNSS NAV DATA                        RINEX VERSION / TYPE
fic2rin                                 07/24/2018 00:10:16 PGM / RUN BY / DATE
                                                            END OF HEADER
 1 18  7 23 11 59 44.0-6.866874173284e-05-3.865352482535e-12 0.000000000000e+00
    3.700000000000e+01-5.875000000000e+01 3.971594004260e-09-1.448053469605e+00
   -3.088265657425e-06 8.014332968742e-03 9.626150131226e-06 5.153669963837e+03
    1.295840000000e+05 1.788139343262e-07 2.533856229808e+00-1.396983861923e-07
    9.721936905581e-01 2.010937500000e+02 6.654659244012e-01-7.643889827265e-09
    3.964450849577e-11 1.000000000000e+00 2.011000000000e+03 0.000000000000e+00
    2.400000000000e+00 0.000000000000e+00 5.587935447693e-09 3.700000000000e+01
    1.224060000000e+05 4.000000000000e+00
 8 18  7 23 11 59 44.0-1.091286540031e-04-1.250555214938e-12 0.000000000000e+00
    1.000000000000e+00-5.884375000000e+01 4.481972406427e-09 1.061709336227e+00
   -3.099441528320e-06 3.444009809755e-03 3.315508365631e-06 5.153601436615e+03
    1.295840000000e+05 1.862645149231e-08 1.468437603349e+00-2.421438694000e-08
    9.692426439323e-01 3.148437500000e+02-3.994254956409e-01-8.225342618536e-09
   -3.150131215609e-10 1.000000000000e+00 2.011000000000e+03 0.000000000000e+00
    2.400000000000e+00 0.000000000000e+00 5.122274160385e-09 1.000000000000e+00
    1.224060000000e+05 4.000000000000e+00
22 18  7 23 11 59 44.0-4.666559398174e-04-1.182343112305e-11 0.000000000000e+00
    3.000000000000e+00 9.562500000000e+00 5.362366221220e-09 1.492812225050e-02
    5.941838026047e-07 7.251979899593e-03 7.182359695435e-06 5.153755342484e+03
    1.295840000000e+05-2.086162567139e-07-2.768638523079e+00-1.862645149231e-08
    9.256616267794e-01 2.251562500000e+02-1.506130078260e+00-8.478210294347e-09
    3.528718413857e-10 1.000000000000e+00 2.011000000000e+03 0.000000000000e+00
    2.400000000000e+00 0.000000000000e+00-1.816079020500e-08 3.000000000000e+00
    1.224060000000e+05 4.000000000000e+00
15 18  7 23 11 59 44.0-3.501605242491e-04 7.958078640513e-13 0.000000000000e+00
    3.300000000000e+01-1.584375000000e+01 5.537373510976e-09-1.516811337623e-01
   -6.705522537231e-07 1.040684443433e-02 6.208196282387e-06 5.153773386002e+03
    1.295840000000e+05 9.313225746155e-08-1.745514609404e+00 1.229345798492e-07
    9.277776119701e-01 2.421250000000e+02 6.883674417241e-01-8.640002747937e-09
   -1.967939115420e-10 1.000000000000e+00 2.011000000000e+03 0.000000000000e+00
    2.400000000000e+00 0.000000000000e+00-1.071020960808e-08 3.300000000000e+01
    1.224060000000e+05 4.000000000000e+00
21 18  7 23 11 59 44.0-3.634248860180e-04 5.570655048359e-12 0.000000000000e+00
    3.800000000000e+01-8.053125000000e+01 4.439827793792e-09 3.049948396284e+00
   -4.069879651070e-06 2.434116427321e-02 9.201467037201e-06 5.153670135498e+03
    1.295840000000e+05 3.781169652939e-07 2.478052877352e+00 1.862645149231e-09
    9.448200824060e-01 1.880000000000e+02-1.542474421497e+00-7.556386182387e-09
    9.643258823294e-12 1.000000000000e+00 2.011000000000e+03 0.000000000000e+00
    2.400000000000e+00 0.000000000000e+00-1.024454832077e-08 3.800000000000e+01
    1.224060000000e+05 4.000000000000e+00
 2 18  7 23 12  0  0.0 4.983088001609e-05-1.068656274583e-11 0.000000000000e+00
    2.700000000000e+01-6.962500000000e+01 4.616620872219e-09-1.123682558849e+00
   -3.483146429062e-06 1.795070164371e-02 1.001730561256e-05 5.153783008575e+03
    1.296000000000e+05-3.725290298462e-08 2.471559153697e+00 4.768371582031e-07
    9.512284521060e-01 1.829687500000e+02-1.844157297102e+00-8.186412425508e-09
   -5.714523747137e-12 1.000000000000e+00 2.011000000000e+03 0.000000000000e+00
    2.400000000000e+00 0.000000000000e+00-2.048909664154e-08 2.700000000000e+01
    1.224060000000e+05 4.000000000000e+00
 3 18  7 23 12  0  0.0 1.101377420127e-04 5.911715561524e-12 0.000000000000e+00
    3.800000000000e+01 6.625000000000e+00 4.502687555010e-09-2.386840306691e+00
    4.265457391739e-07 1.563770114444e-03 7.119029760361e-06 5.153710294724e+03
    1.296000000000e+05-4.470348358154e-08-2.706960384200e+00 4.842877388000e-08
    9.614864322149e-01 2.430937500000e+02 5.104824973822e-01-7.932473276495e-09
    3.868018261344e-10 1.000000000000e+00 2.011000000000e+03 0.000000000000e+00
    2.400000000000e+00 0.000000000000e+00 1.862645149231e-09 3.800000000000e+01
    1.224060000000e+05 4.000000000000e+00
 5 18  7 23 12  0  0.0-4.194211214781e-06 5.684341886081e-13 0.000000000000e+00
    1.000000000000e+02 8.593750000000e+00 4.894489589423e-09 1.543699432523e+00
    5.010515451431e-07 5.501136532985e-03 7.428228855133e-06 5.153744447708e+03
    1.296000000000e+05-5.401670932770e-08-2.729567585812e+00-1.303851604462e-08
    9.483883502615e-01 2.331875000000e+02 6.384678882817e-01-8.171768958406e-09
    3.146559638267e-10 1.000000000000e+00 2.011000000000e+03 0.000000000000e+00
    2.400000000000e+00 0.000000000000e+00-1.117587089539e-08 1.000000000000e+02
    1.224060000000e+05 4.000000000000e+00
 6 18  7 23 12  0  0.0 3.842706792057e-04-3.979039320257e-12 0.000000000000e+00
    5.600000000000e+01-6.559375000000e+01 4.013738616896e-09-1.259903956171e+00
   -3.421679139137e-06 1.041937852278e-03 1.015327870846e-05 5.153673051834e+03
    1.296000000000e+05 2.048909664154e-08 2.525531623215e+00 5.774199962616e-08
    9.718931252612e-01 1.900312500000e+02-1.057931917899e+00-7.773895242512e-09
    1.139333172086e-10 1.000000000000e+00 2.011000000000e+03 0.000000000000e+00
    2.400000000000e+00 0.000000000000e+00 4.656612873077e-09 5.600000000000e+01
    1.224060000000e+05 4.000000000000e+00
 4 18  7 23 12  0  0.0 8.169980719686e-05 3.637978807092e-12 0.000000000000e+00
    7.900000000000e+01 8.287500000000e+01 5.635949045614e-09 1.960705467184e+00
    4.194676876068e-06 9.797701728530e-03 4.492700099945e-06 5.153713529587e+03
    1.296000000000e+05-2.179294824600e-07 4.623425739897e-01-1.452863216400e-07
    9.787089293496e-01 3.020937500000e+02 9.331870383002e-01-8.024262814183e-09
    2.114373786441e-10 1.000000000000e+00 2.011000000000e+03 0.000000000000e+00
    4.850000000000e+00 6.300000000000e+01-1.955777406693e-08 7.900000000000e+01
    1.224060000000e+05 4.000000000000e+00
14 18  7 23 12  0  0.0-9.764824062586e-05 0.000000000000e+00 0.000000000000e+00
    4.000000000000e+00-1.759375000000e+01 4.701981570691e-09 4.244484577648e-01
   -1.030042767525e-06 1.006128441077e-02 7.269904017448e-06 5.153602481842e+03
    1.296000000000e+05-2.253800630569e-07-1.582995986868e+00 1.676380634308e-08
    9.604702980946e-01 2.405937500000e+02-1.944840891572e+00-8.165340119191e-09
   -3.157274370293e-10 1.000000000000e+00 2.011000000000e+03 0.000000000000e+00
    2.400000000000e+00 0.000000000000e+00-9.778887033463e-09 4.000000000000e+00
    1.224060000000e+05 4.000000000000e+00
24 18  7 23 12  0  0.0-5.295779556036e-05-5.684341886081e-13 0.000000000000e+00
    4.000000000000e+00 6.237500000000e+01 4.844130348901e-09-1.122918103692e+00
    3.213062882423e-06 7.037234376185e-03 1.030229032040e-05 5.153641454697e+03
    1.296000000000e+05 1.695007085800e-07-6.563371049263e-01-4.097819328308e-08
    9.412041190323e-01 1.682500000000e+02 5.350487554997e-01-8.076765001110e-09
   -1.260766801712e-10 1.000000000000e+00 2.011000000000e+03 0.000000000000e+00
    2.400000000000e+00 0.000000000000e+00 2.793967723846e-09 4.000000000000e+00
    1.224060000000e+05 4.000000000000e+00
25 18  7 23 12  0  0.0-6.204494275153e-04-5.798028723802e-12 0.000000000000e+00
    3.400000000000e+01 9.171875000000e+01 4.370539193357e-09 3.131253193333e+00
    4.591420292854e-06 7.454774691723e-03 4.108995199203e-06 5.153619577408e+03
    1.296000000000e+05-5.587935447693e-08 4.371586513783e-01-1.918524503708e-07
    9.739004536745e-01 3.052187500000e+02 8.708216556174e-01-8.048549540109e-09
    1.817932867058e-10 1.000000000000e+00 2.011000000000e+03 0.000000000000e+00
    2.400000000000e+00 0.000000000000e+00 5.587935447693e-09 3.400000000000e+01
    1.224060000000e+05 4.000000000000e+00
13 18  7 23 12  0  0.0-9.205704554915e-05 5.684341886081e-13 0.000000000000e+00
    5.500000000000e+01-8.156250000000e+00 4.478757986819e-09-5.458614741443e-01
   -4.842877388000e-07 3.292147070169e-03 7.690861821175e-06 5.153660902023e+03
    1.296000000000e+05-5.587935447693e-09-1.540692588739e+00-3.725290298462e-09
    9.679201791549e-01 2.373750000000e+02 1.521068730595e+00-7.972474942725e-09
   -3.053698627377e-10 1.000000000000e+00 2.011000000000e+03 0.000000000000e+00
    2.400000000000e+00 0.000000000000e+00-1.117587089539e-08 5.500000000000e+01
    1.224060000000e+05 4.000000000000e+00
11 18  7 23 12  0  0.0-7.287031039596e-04 1.818989403546e-12 0.000000000000e+00
    3.600000000000e+01-8.275000000000e+01 5.496657529278e-09-2.103919236955e+00
   -4.157423973083e-06 1.700496894773e-02 7.273629307747e-06 5.153648120880e+03
    1.296000000000e+05 2.011656761169e-07 2.103153601224e+00 3.296881914139e-07
    9.060261954906e-01 2.072812500000e+02 1.786156100411e+00-8.336061516137e-09
   -2.042942239602e-10 1.000000000000e+00 2.011000000000e+03 0.000000000000e+00
    2.400000000000e+00 0.000000000000e+00-1.210719347000e-08 3.600000000000e+01
    1.224060000000e+05 4.000000000000e+00
 7 18  7 23 12  0  0.0 1.541650854051e-04-6.366462912410e-12 0.000000000000e+00
    4.000000000000e+01 6.150000000000e+01 4.439113478323e-09-2.108691464446e+00
    2.846121788025e-06 1.194350200240e-02 9.443610906601e-06 5.153654115677e+03
    1.296000000000e+05 1.434236764908e-07-5.956554561035e-01-1.061707735062e-07
    9.581719645540e-01 1.954062500000e+02-2.510088433841e+00-7.772109453841e-09
    3.893019302737e-11 1.000000000000e+00 2.011000000000e+03 0.000000000000e+00
    2.400000000000e+00 0.000000000000e+00-1.117587089539e-08 4.000000000000e+01
    1.224060000000e+05 4.000000000000e+00
